STARLINK-11343 [DTC]    
1 62017U 24213K   26022.40205842  .00160316  00000+0  12999-2 0  9993
2 62017  53.1566 269.5569 0001023  80.7105 279.4028 15.69762674 67641
STARLINK-11411 [DTC]    
1 62018U 24213L   26022.96525519  .00332710  00000+0  26324-2 0  9997
2 62018  53.1565 266.6668 0002196 107.8377 252.2881 15.69802023 67732
STARLINK-11404 [DTC]    
1 62019U 24213M   26022.16699811  .00174257  00000+0  14116-2 0  9993
2 62019  53.1560 270.9382 0001418 143.6103 216.5012 15.69737656 67604
STARLINK-11378 [DTC]    
1 62020U 24213N   26022.68115514  .00365078  00000+0  28598-2 0  9997
2 62020  53.1567 267.7245 0001157 141.0470 219.0631 15.69943518 67694
STARLINK-32520          
1 62021U 24213P   26022.27231557  .00030886  00000+0  10508-2 0  9997
2 62021  53.1605  24.0441 0001565  73.8910 286.2262 15.30191844 66043
STARLINK-32539          
1 62022U 24213Q   26022.93753952  .00026270  00000+0  89542-3 0  9996
2 62022  53.1612   8.1249 0001183  63.2676 296.8445 15.30218654 66329
STARLINK-32334          
1 62023U 24213R   26022.41232637  .00036722  00000+0  12459-2 0  9997
2 62023  53.1590  22.7837 0001180  98.6235 261.4900 15.30199168 66074
STARLINK-32504          
1 62024U 24213S   26022.95172604  .00036189  00000+0  12278-2 0  9990
2 62024  53.1598  20.4700 0001404  84.2987 275.8174 15.30205540 66154
STARLINK-32493          
1 62025U 24213T   26022.39660596  .00033339  00000+0  11331-2 0  9994
2 62025  53.1611  23.3999 0000833 106.1068 254.0025 15.30189732 66060
STARLINK-32561          
1 62026U 24213U   26022.43554755  .00037504  00000+0  12721-2 0  9991
2 62026  53.1595  22.9327 0001181 104.3636 255.7496 15.30197603 66077
STARLINK-32512          
1 62027U 24213V   26022.28906825  .00092108  00000+0  30746-2 0  9992
2 62027  53.1587  23.4371 0001436  65.0280 295.0870 15.30295227 66057
STARLINK-32637          
1 62032U 24216A   26022.74559496  .00029384  00000+0  10725-2 0  9991
2 62032  43.0010 155.3997 0000822 231.8098 128.2680 15.27598455 66858
STARLINK-32582          
1 62033U 24216B   26022.78187749  .00044144  00000+0  16025-2 0  9994
2 62033  43.0050 162.5928 0002778 266.8821  93.1713 15.27611787 66773
STARLINK-32615          
1 62034U 24216C   26022.71876190  .00028885  00000+0  10548-2 0  9991
2 62034  42.9978 156.0547 0001056 281.9820  78.0913 15.27587155 65685
STARLINK-32592          
1 62035U 24216D   26022.80757541  .00041011  00000+0  14896-2 0  9996
2 62035  42.9998 162.7859 0001525 295.9980  64.0714 15.27623946 66786
STARLINK-32225          
1 62036U 24216E   26022.72261438  .00034283  00000+0  12490-2 0  9994
2 62036  42.9995 156.0862 0001751 281.2579  78.8076 15.27593207 66912
