[{"OBJECT_NAME":"STARLINK-11343 [DTC]","OBJECT_ID":"2024-213K","EPOCH":"2026-01-22T09:38:57.847488","MEAN_MOTION":15.69762674,"ECCENTRICITY":0.0001023,"INCLINATION":53.1566,"RA_OF_ASC_NODE":269.5569,"ARG_OF_PERICENTER":80.7105,"MEAN_ANOMALY":279.4028,"EPHEMERIS_TYPE":0,"CLASSIFICATION_TYPE":"U","NORAD_CAT_ID":62017,"ELEMENT_SET_NO":999,"REV_AT_EPOCH":6764,"BSTAR":0.0012998575,"MEAN_MOTION_DOT":0.00160316,"MEAN_MOTION_DDOT":0},{"OBJECT_NAME":"STARLINK-11411 [DTC]","OBJECT_ID":"2024-213L","EPOCH":"2026-01-22T23:09:58.048416","MEAN_MOTION":15.69802023,"ECCENTRICITY":0.00021962,"INCLINATION":53.1565,"RA_OF_ASC_NODE":266.6668,"ARG_OF_PERICENTER":107.8377,"MEAN_ANOMALY":252.2881,"EPHEMERIS_TYPE":0,"CLASSIFICATION_TYPE":"U","NORAD_CAT_ID":62018,"ELEMENT_SET_NO":999,"REV_AT_EPOCH":6773,"BSTAR":0.0026323993,"MEAN_MOTION_DOT":0.0033271,"MEAN_MOTION_DDOT":0},{"OBJECT_NAME":"STARLINK-11404 [DTC]","OBJECT_ID":"2024-213M","EPOCH":"2026-01-22T04:00:28.636704","MEAN_MOTION":15.69737656,"ECCENTRICITY":0.00014189,"INCLINATION":53.156,"RA_OF_ASC_NODE":270.9382,"ARG_OF_PERICENTER":143.6103,"MEAN_ANOMALY":216.5012,"EPHEMERIS_TYPE":0,"CLASSIFICATION_TYPE":"U","NORAD_CAT_ID":62019,"ELEMENT_SET_NO":999,"REV_AT_EPOCH":6760,"BSTAR":0.0014115506,"MEAN_MOTION_DOT":0.00174257,"MEAN_MOTION_DDOT":0},{"OBJECT_NAME":"STARLINK-11378 [DTC]","OBJECT_ID":"2024-213N","EPOCH":"2026-01-22T16:20:51.804096","MEAN_MOTION":15.69943518,"ECCENTRICITY":0.00011576,"INCLINATION":53.1567,"RA_OF_ASC_NODE":267.7245,"ARG_OF_PERICENTER":141.047,"MEAN_ANOMALY":219.0631,"EPHEMERIS_TYPE":0,"CLASSIFICATION_TYPE":"U","NORAD_CAT_ID":62020,"ELEMENT_SET_NO":999,"REV_AT_EPOCH":6769,"BSTAR":0.0028597948,"MEAN_MOTION_DOT":0.00365078,"MEAN_MOTION_DDOT":0},{"OBJECT_NAME":"STARLINK-32520","OBJECT_ID":"2024-213P","EPOCH":"2026-01-22T06:32:08.065248","MEAN_MOTION":15.30191844,"ECCENTRICITY":0.0001565,"INCLINATION":53.1605,"RA_OF_ASC_NODE":24.0441,"ARG_OF_PERICENTER":73.891,"MEAN_ANOMALY":286.2262,"EPHEMERIS_TYPE":0,"CLASSIFICATION_TYPE":"U","NORAD_CAT_ID":62021,"ELEMENT_SET_NO":999,"REV_AT_EPOCH":6604,"BSTAR":0.0010508,"MEAN_MOTION_DOT":0.00030886,"MEAN_MOTION_DDOT":0},{"OBJECT_NAME":"STARLINK-32539","OBJECT_ID":"2024-213Q","EPOCH":"2026-01-22T22:30:03.414528","MEAN_MOTION":15.30218654,"ECCENTRICITY":0.00011837,"INCLINATION":53.1612,"RA_OF_ASC_NODE":8.1249,"ARG_OF_PERICENTER":63.2676,"MEAN_ANOMALY":296.8445,"EPHEMERIS_TYPE":0,"CLASSIFICATION_TYPE":"U","NORAD_CAT_ID":62022,"ELEMENT_SET_NO":999,"REV_AT_EPOCH":6632,"BSTAR":0.00089542036,"MEAN_MOTION_DOT":0.0002627,"MEAN_MOTION_DDOT":0},{"OBJECT_NAME":"STARLINK-32334","OBJECT_ID":"2024-213R","EPOCH":"2026-01-22T09:53:44.998368","MEAN_MOTION":15.30199168,"ECCENTRICITY":0.000118,"INCLINATION":53.159,"RA_OF_ASC_NODE":22.7837,"ARG_OF_PERICENTER":98.6235,"MEAN_ANOMALY":261.49,"EPHEMERIS_TYPE":0,"CLASSIFICATION_TYPE":"U","NORAD_CAT_ID":62023,"ELEMENT_SET_NO":999,"REV_AT_EPOCH":6607,"BSTAR":0.0012458949,"MEAN_MOTION_DOT":0.00036722,"MEAN_MOTION_DDOT":0},{"OBJECT_NAME":"STARLINK-32504","OBJECT_ID":"2024-213S","EPOCH":"2026-01-22T22:50:29.129856","MEAN_MOTION":15.3020554,"ECCENTRICITY":0.00014046,"INCLINATION":53.1598,"RA_OF_ASC_NODE":20.47,"ARG_OF_PERICENTER":84.2987,"MEAN_ANOMALY":275.8174,"EPHEMERIS_TYPE":0,"CLASSIFICATION_TYPE":"U","NORAD_CAT_ID":62024,"ELEMENT_SET_NO":999,"REV_AT_EPOCH":6615,"BSTAR":0.0012278272,"MEAN_MOTION_DOT":0.00036189,"MEAN_MOTION_DDOT":0},{"OBJECT_NAME":"STARLINK-32493","OBJECT_ID":"2024-213T","EPOCH":"2026-01-22T09:31:06.754944","MEAN_MOTION":15.30189732,"ECCENTRICITY":8.336e-5,"INCLINATION":53.1611,"RA_OF_ASC_NODE":23.3999,"ARG_OF_PERICENTER":106.1068,"MEAN_ANOMALY":254.0025,"EPHEMERIS_TYPE":0,"CLASSIFICATION_TYPE":"U","NORAD_CAT_ID":62025,"ELEMENT_SET_NO":999,"REV_AT_EPOCH":6606,"BSTAR":0.0011330821,"MEAN_MOTION_DOT":0.00033339,"MEAN_MOTION_DDOT":0},{"OBJECT_NAME":"STARLINK-32561","OBJECT_ID":"2024-213U","EPOCH":"2026-01-22T10:27:11.308320","MEAN_MOTION":15.30197603,"ECCENTRICITY":0.00011818,"INCLINATION":53.1595,"RA_OF_ASC_NODE":22.9327,"ARG_OF_PERICENTER":104.3636,"MEAN_ANOMALY":255.7496,"EPHEMERIS_TYPE":0,"CLASSIFICATION_TYPE":"U","NORAD_CAT_ID":62026,"ELEMENT_SET_NO":999,"REV_AT_EPOCH":6607,"BSTAR":0.0012720967,"MEAN_MOTION_DOT":0.00037504,"MEAN_MOTION_DDOT":0},{"OBJECT_NAME":"STARLINK-32512","OBJECT_ID":"2024-213V","EPOCH":"2026-01-22T06:56:15.496800","MEAN_MOTION":15.30295227,"ECCENTRICITY":0.0001436,"INCLINATION":53.1587,"RA_OF_ASC_NODE":23.4371,"ARG_OF_PERICENTER":65.028,"MEAN_ANOMALY":295.087,"EPHEMERIS_TYPE":0,"CLASSIFICATION_TYPE":"U","NORAD_CAT_ID":62027,"ELEMENT_SET_NO":999,"REV_AT_EPOCH":6605,"BSTAR":0.0030746,"MEAN_MOTION_DOT":0.00092108,"MEAN_MOTION_DDOT":0},{"OBJECT_NAME":"STARLINK-32637","OBJECT_ID":"2024-216A","EPOCH":"2026-01-22T17:53:39.404544","MEAN_MOTION":15.27598455,"ECCENTRICITY":8.22e-5,"INCLINATION":43.001,"RA_OF_ASC_NODE":155.3997,"ARG_OF_PERICENTER":231.8098,"MEAN_ANOMALY":128.268,"EPHEMERIS_TYPE":0,"CLASSIFICATION_TYPE":"U","NORAD_CAT_ID":62032,"ELEMENT_SET_NO":999,"REV_AT_EPOCH":6685,"BSTAR":0.0010724857,"MEAN_MOTION_DOT":0.00029384,"MEAN_MOTION_DDOT":0},{"OBJECT_NAME":"STARLINK-32582","OBJECT_ID":"2024-216B","EPOCH":"2026-01-22T18:45:54.215136","MEAN_MOTION":15.27611787,"ECCENTRICITY":0.00027782,"INCLINATION":43.005,"RA_OF_ASC_NODE":162.5928,"ARG_OF_PERICENTER":266.8821,"MEAN_ANOMALY":93.1713,"EPHEMERIS_TYPE":0,"CLASSIFICATION_TYPE":"U","NORAD_CAT_ID":62033,"ELEMENT_SET_NO":999,"REV_AT_EPOCH":6677,"BSTAR":0.0016024724,"MEAN_MOTION_DOT":0.00044144,"MEAN_MOTION_DDOT":0},{"OBJECT_NAME":"STARLINK-32615","OBJECT_ID":"2024-216C","EPOCH":"2026-01-22T17:15:01.028160","MEAN_MOTION":15.27587155,"ECCENTRICITY":0.0001056,"INCLINATION":42.9978,"RA_OF_ASC_NODE":156.0547,"ARG_OF_PERICENTER":281.982,"MEAN_ANOMALY":78.0913,"EPHEMERIS_TYPE":0,"CLASSIFICATION_TYPE":"U","NORAD_CAT_ID":62034,"ELEMENT_SET_NO":999,"REV_AT_EPOCH":6568,"BSTAR":0.0010548371,"MEAN_MOTION_DOT":0.00028885,"MEAN_MOTION_DDOT":0},{"OBJECT_NAME":"STARLINK-32592","OBJECT_ID":"2024-216D","EPOCH":"2026-01-22T19:22:54.515424","MEAN_MOTION":15.27623946,"ECCENTRICITY":0.00015259,"INCLINATION":42.9998,"RA_OF_ASC_NODE":162.7859,"ARG_OF_PERICENTER":295.998,"MEAN_ANOMALY":64.0714,"EPHEMERIS_TYPE":0,"CLASSIFICATION_TYPE":"U","NORAD_CAT_ID":62035,"ELEMENT_SET_NO":999,"REV_AT_EPOCH":6678,"BSTAR":0.0014895524,"MEAN_MOTION_DOT":0.00041011,"MEAN_MOTION_DDOT":0},{"OBJECT_NAME":"STARLINK-32225","OBJECT_ID":"2024-216E","EPOCH":"2026-01-22T17:20:33.882432","MEAN_MOTION":15.27593207,"ECCENTRICITY":0.00017518,"INCLINATION":42.9995,"RA_OF_ASC_NODE":156.0862,"ARG_OF_PERICENTER":281.2579,"MEAN_ANOMALY":78.8076,"EPHEMERIS_TYPE":0,"CLASSIFICATION_TYPE":"U","NORAD_CAT_ID":62036,"ELEMENT_SET_NO":999,"REV_AT_EPOCH":6691,"BSTAR":0.00124903,"MEAN_MOTION_DOT":0.00034283,"MEAN_MOTION_DDOT":0}]
